
{
"AD":{"iso2":"AD","iso3":"AND","name":"Andorra","name_en":"Andorra","domain":"ad","fips":"AN","iso_numeric":20,"latitude":42.5,"longitude":1.6,"geonameid":3041565,"e164":376,"phone_code":"376","area_km2":468,"continent":"EU"},
"AE":{"iso2":"AE","iso3":"ARE","name":"United Arab Emirates","name_en":"United Arab Emirates","domain":"ae","fips":"AE","iso_numeric":784,"latitude":24,"longitude":54,"geonameid":290557,"e164":971,"phone_code":"971","area_km2":82880,"continent":"AS"},
"AF":{"iso2":"AF","iso3":"AFG","name":"Afghanistan","name_en":"Afghanistan","domain":"af","fips":"AF","iso_numeric":4,"latitude":33,"longitude":65,"geonameid":1149361,"e164":93,"phone_code":"93","area_km2":647500,"continent":"AS"},
"AG":{"iso2":"AG","iso3":"ATG","name":"Antigua and Barbuda","name_en":"Antigua and Barbuda","domain":"ag","fips":"AC","iso_numeric":28,"latitude":17.05,"longitude":-61.8,"geonameid":3576396,"e164":1,"phone_code":"1-268","area_km2":443,"continent":"NA"},
"AI":{"iso2":"AI","iso3":"AIA","name":"Anguilla","name_en":"Anguilla","domain":"ai","fips":"AV","iso_numeric":660,"latitude":18.25,"longitude":-63.1667,"geonameid":3573511,"e164":1,"phone_code":"1-264","area_km2":102,"continent":"NA"},
"AL":{"iso2":"AL","iso3":"ALB","name":"Albania","name_en":"Albania","domain":"al","fips":"AL","iso_numeric":8,"latitude":41,"longitude":20,"geonameid":783754,"e164":355,"phone_code":"355","area_km2":28748,"continent":"EU"},
"AM":{"iso2":"AM","iso3":"ARM","name":"Armenia","name_en":"Armenia","domain":"am","fips":"AM","iso_numeric":51,"latitude":40,"longitude":45,"geonameid":174982,"e164":374,"phone_code":"374","area_km2":29800,"continent":"AS"},
"AN":{"iso2":"AN","iso3":"ANT","name":"Netherlands Antilles","name_en":"Netherlands Antilles","domain":"an","fips":"NT","iso_numeric":530,"latitude":12.25,"longitude":-68.75,"geonameid":8505032,"e164":599,"phone_code":"599","area_km2":960,"continent":"NA"},
"AO":{"iso2":"AO","iso3":"AGO","name":"Angola","name_en":"Angola","domain":"ao","fips":"AO","iso_numeric":24,"latitude":-12.5,"longitude":18.5,"geonameid":3351879,"e164":244,"phone_code":"244","area_km2":1246700,"continent":"AF"},
"AQ":{"iso2":"AQ","iso3":"ATA","name":"Antarctica","name_en":"Antarctica","domain":"aq","fips":"AY","iso_numeric":10,"latitude":-90,"longitude":0,"geonameid":6697173,"e164":672,"phone_code":"672","area_km2":14000000,"continent":"AN"},
"AR":{"iso2":"AR","iso3":"ARG","name":"Argentina","name_en":"Argentina","domain":"ar","fips":"AR","iso_numeric":32,"latitude":-38.4161,"longitude":-63.6167,"geonameid":3865483,"e164":54,"phone_code":"54","area_km2":2766890,"continent":"SA"},
"AS":{"iso2":"AS","iso3":"ASM","name":"American Samoa","name_en":"American Samoa","domain":"as","fips":"AQ","iso_numeric":16,"latitude":-14.3333,"longitude":-170,"geonameid":5880801,"e164":1,"phone_code":"1-684","area_km2":199,"continent":"OC"},
"AT":{"iso2":"AT","iso3":"AUT","name":"Austria","name_en":"Austria","domain":"at","fips":"AU","iso_numeric":40,"latitude":47.3333,"longitude":13.3333,"geonameid":2782113,"e164":43,"phone_code":"43","area_km2":83858,"continent":"EU"},
"AU":{"iso2":"AU","iso3":"AUS","name":"Australia","name_en":"Australia","domain":"au","fips":"AS","iso_numeric":36,"latitude":-27,"longitude":133,"geonameid":2077456,"e164":61,"phone_code":"61","area_km2":7686850,"continent":"OC"},
"AW":{"iso2":"AW","iso3":"ABW","name":"Aruba","name_en":"Aruba","domain":"aw","fips":"AA","iso_numeric":533,"latitude":12.5,"longitude":-69.9667,"geonameid":3577279,"e164":297,"phone_code":"297","area_km2":193,"continent":"NA"},
"AX":{"iso2":"AX","iso3":"ALA","name":"Åland Islands","name_en":"Åland","domain":"ax","fips":"","iso_numeric":248,"latitude":60.1167,"longitude":19.9,"geonameid":661882,"e164":358,"phone_code":"358","area_km2":1580,"continent":"EU"},
"AZ":{"iso2":"AZ","iso3":"AZE","name":"Azerbaijan","name_en":"Azerbaijan","domain":"az","fips":"AJ","iso_numeric":31,"latitude":40.5,"longitude":47.5,"geonameid":587116,"e164":994,"phone_code":"994","area_km2":86600,"continent":"AS"},
"BA":{"iso2":"BA","iso3":"BIH","name":"Bosnia and Herzegovina","name_en":"Bosnia and Herzegovina","domain":"ba","fips":"BK","iso_numeric":70,"latitude":44,"longitude":18,"geonameid":3277605,"e164":387,"phone_code":"387","area_km2":51129,"continent":"EU"},
"BB":{"iso2":"BB","iso3":"BRB","name":"Barbados","name_en":"Barbados","domain":"bb","fips":"BB","iso_numeric":52,"latitude":13.1667,"longitude":-59.5333,"geonameid":3374084,"e164":1,"phone_code":"1-246","area_km2":431,"continent":"NA"},
"BD":{"iso2":"BD","iso3":"BGD","name":"Bangladesh","name_en":"Bangladesh","domain":"bd","fips":"BG","iso_numeric":50,"latitude":24,"longitude":90,"geonameid":1210997,"e164":880,"phone_code":"880","area_km2":144000,"continent":"AS"},
"BE":{"iso2":"BE","iso3":"BEL","name":"Belgium","name_en":"Belgium","domain":"be","fips":"BE","iso_numeric":56,"latitude":50.8333,"longitude":4,"geonameid":2802361,"e164":32,"phone_code":"32","area_km2":30510,"continent":"EU"},
"BF":{"iso2":"BF","iso3":"BFA","name":"Burkina Faso","name_en":"Burkina Faso","domain":"bf","fips":"UV","iso_numeric":854,"latitude":13,"longitude":-2,"geonameid":2361809,"e164":226,"phone_code":"226","area_km2":274200,"continent":"AF"},
"BG":{"iso2":"BG","iso3":"BGR","name":"Bulgaria","name_en":"Bulgaria","domain":"bg","fips":"BU","iso_numeric":100,"latitude":43,"longitude":25,"geonameid":732800,"e164":359,"phone_code":"359","area_km2":110910,"continent":"EU"},
"BH":{"iso2":"BH","iso3":"BHR","name":"Bahrain","name_en":"Bahrain","domain":"bh","fips":"BA","iso_numeric":48,"latitude":26,"longitude":50.55,"geonameid":290291,"e164":973,"phone_code":"973","area_km2":665,"continent":"AS"},
"BI":{"iso2":"BI","iso3":"BDI","name":"Burundi","name_en":"Burundi","domain":"bi","fips":"BY","iso_numeric":108,"latitude":-3.5,"longitude":30,"geonameid":433561,"e164":257,"phone_code":"257","area_km2":27830,"continent":"AF"},
"BJ":{"iso2":"BJ","iso3":"BEN","name":"Benin","name_en":"Benin","domain":"bj","fips":"BN","iso_numeric":204,"latitude":9.5,"longitude":2.25,"geonameid":2395170,"e164":229,"phone_code":"229","area_km2":112620,"continent":"AF"},
"BL":{"iso2":"BL","iso3":"BLM","name":"Saint Barthélemy","name_en":"Saint Barthelemy","domain":"gp","fips":"TB","iso_numeric":652,"latitude":0,"longitude":0,"geonameid":3578476,"e164":590,"phone_code":"590","area_km2":21,"continent":"NA"},
"BM":{"iso2":"BM","iso3":"BMU","name":"Bermuda","name_en":"Bermuda","domain":"bm","fips":"BD","iso_numeric":60,"latitude":32.3333,"longitude":-64.75,"geonameid":3573345,"e164":1,"phone_code":"1-441","area_km2":53,"continent":"NA"},
"BN":{"iso2":"BN","iso3":"BRN","name":"Brunei Darussalam","name_en":"Brunei","domain":"bn","fips":"BX","iso_numeric":96,"latitude":4.5,"longitude":114.6667,"geonameid":1820814,"e164":673,"phone_code":"673","area_km2":5770,"continent":"AS"},
"BO":{"iso2":"BO","iso3":"BOL","name":"Bolivia, Plurinational State of Bolivia","name_en":"Bolivia","domain":"bo","fips":"BL","iso_numeric":68,"latitude":-17,"longitude":-65,"geonameid":3923057,"e164":591,"phone_code":"591","area_km2":1098580,"continent":"SA"},
"BQ":{"iso2":"BQ","iso3":"BES","name":"Bonaire, Sint Eustatius, and Saba","name_en":"Bonaire, Sint Eustatius, and Saba","domain":"bq","fips":"","iso_numeric":535,"latitude":0,"longitude":0,"geonameid":7626844,"e164":599,"phone_code":"599","area_km2":328,"continent":"NA"},
"BR":{"iso2":"BR","iso3":"BRA","name":"Brazil","name_en":"Brazil","domain":"br","fips":"BR","iso_numeric":76,"latitude":-10,"longitude":-55,"geonameid":3469034,"e164":55,"phone_code":"55","area_km2":8511965,"continent":"SA"},
"BS":{"iso2":"BS","iso3":"BHS","name":"Bahamas","name_en":"Bahamas","domain":"bs","fips":"BF","iso_numeric":44,"latitude":24.25,"longitude":-76,"geonameid":3572887,"e164":1,"phone_code":"1-242","area_km2":13940,"continent":"NA"},
"BT":{"iso2":"BT","iso3":"BTN","name":"Bhutan","name_en":"Bhutan","domain":"bt","fips":"BT","iso_numeric":64,"latitude":27.5,"longitude":90.5,"geonameid":1252634,"e164":975,"phone_code":"975","area_km2":47000,"continent":"AS"},
"BV":{"iso2":"BV","iso3":"BVT","name":"Bouvet Island","name_en":"Bouvet Island","domain":"bv","fips":"BV","iso_numeric":74,"latitude":-54.4333,"longitude":3.4,"geonameid":3371123,"e164":55,"phone_code":"55","area_km2":49,"continent":"AN"},
"BW":{"iso2":"BW","iso3":"BWA","name":"Botswana","name_en":"Botswana","domain":"bw","fips":"BC","iso_numeric":72,"latitude":-22,"longitude":24,"geonameid":933860,"e164":267,"phone_code":"267","area_km2":600370,"continent":"AF"},
"BY":{"iso2":"BY","iso3":"BLR","name":"Belarus","name_en":"Belarus","domain":"by","fips":"BO","iso_numeric":112,"latitude":53,"longitude":28,"geonameid":630336,"e164":375,"phone_code":"375","area_km2":207600,"continent":"EU"},
"BZ":{"iso2":"BZ","iso3":"BLZ","name":"Belize","name_en":"Belize","domain":"bz","fips":"BH","iso_numeric":84,"latitude":17.25,"longitude":-88.75,"geonameid":3582678,"e164":501,"phone_code":"501","area_km2":22966,"continent":"NA"},
"CA":{"iso2":"CA","iso3":"CAN","name":"Canada","name_en":"Canada","domain":"ca","fips":"CA","iso_numeric":124,"latitude":60,"longitude":-95,"geonameid":6251999,"e164":1,"phone_code":"1","area_km2":9984670,"continent":"NA"},
"CC":{"iso2":"CC","iso3":"CCK","name":"Cocos (Keeling) Islands","name_en":"Cocos Islands","domain":"cc","fips":"CK","iso_numeric":166,"latitude":-12.5,"longitude":96.8333,"geonameid":1547376,"e164":61,"phone_code":"61","area_km2":14,"continent":"AS"},
"CD":{"iso2":"CD","iso3":"COD","name":"Congo, The Democratic Republic of the","name_en":"Democratic Republic of the Congo","domain":"cd","fips":"CG","iso_numeric":180,"latitude":-4.322447,"longitude":15.307045,"geonameid":203312,"e164":243,"phone_code":"243","area_km2":2345410,"continent":"AF"},
"CF":{"iso2":"CF","iso3":"CAF","name":"Central African Republic","name_en":"Central African Republic","domain":"cf","fips":"CT","iso_numeric":140,"latitude":6.6111,"longitude":20.9395,"geonameid":239880,"e164":236,"phone_code":"236","area_km2":622984,"continent":"AF"},
"CG":{"iso2":"CG","iso3":"COG","name":"Congo","name_en":"Republic of the Congo","domain":"cg","fips":"CF","iso_numeric":178,"latitude":-1,"longitude":15,"geonameid":2260494,"e164":242,"phone_code":"242","area_km2":342000,"continent":"AF"},
"CH":{"iso2":"CH","iso3":"CHE","name":"Switzerland","name_en":"Switzerland","domain":"ch","fips":"SZ","iso_numeric":756,"latitude":47,"longitude":8,"geonameid":2658434,"e164":41,"phone_code":"41","area_km2":41290,"continent":"EU"},
"CI":{"iso2":"CI","iso3":"CIV","name":"Cote d'Ivoire","name_en":"Ivory Coast","domain":"ci","fips":"IV","iso_numeric":384,"latitude":8,"longitude":-5,"geonameid":2287781,"e164":225,"phone_code":"225","area_km2":322460,"continent":"AF"},
"CK":{"iso2":"CK","iso3":"COK","name":"Cook Islands","name_en":"Cook Islands","domain":"ck","fips":"CW","iso_numeric":184,"latitude":-21.2333,"longitude":-159.7667,"geonameid":1899402,"e164":682,"phone_code":"682","area_km2":240,"continent":"OC"},
"CL":{"iso2":"CL","iso3":"CHL","name":"Chile","name_en":"Chile","domain":"cl","fips":"CI","iso_numeric":152,"latitude":-35.6752,"longitude":-71.543,"geonameid":3895114,"e164":56,"phone_code":"56","area_km2":756950,"continent":"SA"},
"CM":{"iso2":"CM","iso3":"CMR","name":"Cameroon","name_en":"Cameroon","domain":"cm","fips":"CM","iso_numeric":120,"latitude":6,"longitude":12,"geonameid":2233387,"e164":237,"phone_code":"237","area_km2":475440,"continent":"AF"},
"CN":{"iso2":"CN","iso3":"CHN","name":"China","name_en":"China","domain":"cn","fips":"CH","iso_numeric":156,"latitude":35,"longitude":105,"geonameid":1814991,"e164":86,"phone_code":"86","area_km2":9596960,"continent":"AS"},
"CO":{"iso2":"CO","iso3":"COL","name":"Colombia","name_en":"Colombia","domain":"co","fips":"CO","iso_numeric":170,"latitude":4,"longitude":-72,"geonameid":3686110,"e164":57,"phone_code":"57","area_km2":1138910,"continent":"SA"},
"CR":{"iso2":"CR","iso3":"CRI","name":"Costa Rica","name_en":"Costa Rica","domain":"cr","fips":"CS","iso_numeric":188,"latitude":10,"longitude":-84,"geonameid":3624060,"e164":506,"phone_code":"506","area_km2":51100,"continent":"NA"},
"CS":{"iso2":"CS","iso3":"SCG","name":"Serbia and Montenegro","name_en":"Serbia and Montenegro","domain":"cs","fips":"YI","iso_numeric":891,"latitude":0,"longitude":0,"geonameid":8505033,"e164":381,"phone_code":"381","area_km2":102350,"continent":"EU"},
"CU":{"iso2":"CU","iso3":"CUB","name":"Cuba","name_en":"Cuba","domain":"cu","fips":"CU","iso_numeric":192,"latitude":21.5,"longitude":-80,"geonameid":3562981,"e164":53,"phone_code":"53","area_km2":110860,"continent":"NA"},
"CV":{"iso2":"CV","iso3":"CPV","name":"Cape Verde","name_en":"Cape Verde","domain":"cv","fips":"CV","iso_numeric":132,"latitude":16,"longitude":-24,"geonameid":3374766,"e164":238,"phone_code":"238","area_km2":4033,"continent":"AF"},
"CW":{"iso2":"CW","iso3":"CUW","name":"Curaçao","name_en":"Curacao","domain":"cw","fips":"UC","iso_numeric":531,"latitude":0,"longitude":0,"geonameid":7626836,"e164":599,"phone_code":"599","area_km2":444,"continent":"NA"},
"CX":{"iso2":"CX","iso3":"CXR","name":"Christmas Island","name_en":"Christmas Island","domain":"cx","fips":"KT","iso_numeric":162,"latitude":-10.5,"longitude":105.6667,"geonameid":2078138,"e164":61,"phone_code":"61","area_km2":135,"continent":"OC"},
"CY":{"iso2":"CY","iso3":"CYP","name":"Cyprus","name_en":"Cyprus","domain":"cy","fips":"CY","iso_numeric":196,"latitude":35,"longitude":33,"geonameid":146669,"e164":357,"phone_code":"357","area_km2":9250,"continent":"EU"},
"CZ":{"iso2":"CZ","iso3":"CZE","name":"Czech Republic","name_en":"Czechia","domain":"cz","fips":"EZ","iso_numeric":203,"latitude":49.75,"longitude":15.5,"geonameid":3077311,"e164":420,"phone_code":"420","area_km2":78866,"continent":"EU"},
"DE":{"iso2":"DE","iso3":"DEU","name":"Germany","name_en":"Germany","domain":"de","fips":"GM","iso_numeric":276,"latitude":51,"longitude":9,"geonameid":2921044,"e164":49,"phone_code":"49","area_km2":357021,"continent":"EU"},
"DJ":{"iso2":"DJ","iso3":"DJI","name":"Djibouti","name_en":"Djibouti","domain":"dj","fips":"DJ","iso_numeric":262,"latitude":11.5,"longitude":43,"geonameid":223816,"e164":253,"phone_code":"253","area_km2":23000,"continent":"AF"},
"DK":{"iso2":"DK","iso3":"DNK","name":"Denmark","name_en":"Denmark","domain":"dk","fips":"DA","iso_numeric":208,"latitude":56,"longitude":10,"geonameid":2623032,"e164":45,"phone_code":"45","area_km2":43094,"continent":"EU"},
"DM":{"iso2":"DM","iso3":"DMA","name":"Dominica","name_en":"Dominica","domain":"dm","fips":"DO","iso_numeric":212,"latitude":15.4167,"longitude":-61.3333,"geonameid":3575830,"e164":1,"phone_code":"1-767","area_km2":754,"continent":"NA"},
"DO":{"iso2":"DO","iso3":"DOM","name":"Dominican Republic","name_en":"Dominican Republic","domain":"do","fips":"DR","iso_numeric":214,"latitude":19,"longitude":-70.6667,"geonameid":3508796,"e164":1,"phone_code":"1-809, 1-829, 1-849","area_km2":48730,"continent":"NA"},
"DZ":{"iso2":"DZ","iso3":"DZA","name":"Algeria","name_en":"Algeria","domain":"dz","fips":"AG","iso_numeric":12,"latitude":28,"longitude":3,"geonameid":2589581,"e164":213,"phone_code":"213","area_km2":2381740,"continent":"AF"},
"EC":{"iso2":"EC","iso3":"ECU","name":"Ecuador","name_en":"Ecuador","domain":"ec","fips":"EC","iso_numeric":218,"latitude":-2,"longitude":-77.5,"geonameid":3658394,"e164":593,"phone_code":"593","area_km2":283560,"continent":"SA"},
"EE":{"iso2":"EE","iso3":"EST","name":"Estonia","name_en":"Estonia","domain":"ee","fips":"EN","iso_numeric":233,"latitude":59,"longitude":26,"geonameid":453733,"e164":372,"phone_code":"372","area_km2":45226,"continent":"EU"},
"EG":{"iso2":"EG","iso3":"EGY","name":"Egypt","name_en":"Egypt","domain":"eg","fips":"EG","iso_numeric":818,"latitude":27,"longitude":30,"geonameid":357994,"e164":20,"phone_code":"20","area_km2":1001450,"continent":"AF"},
"EH":{"iso2":"EH","iso3":"ESH","name":"Western Sahara","name_en":"Western Sahara","domain":"eh","fips":"WI","iso_numeric":732,"latitude":24.5,"longitude":-13,"geonameid":2461445,"e164":212,"phone_code":"212","area_km2":266000,"continent":"AF"},
"ER":{"iso2":"ER","iso3":"ERI","name":"Eritrea","name_en":"Eritrea","domain":"er","fips":"ER","iso_numeric":232,"latitude":15,"longitude":39,"geonameid":338010,"e164":291,"phone_code":"291","area_km2":121320,"continent":"AF"},
"ES":{"iso2":"ES","iso3":"ESP","name":"Spain","name_en":"Spain","domain":"es","fips":"SP","iso_numeric":724,"latitude":40,"longitude":-4,"geonameid":2510769,"e164":34,"phone_code":"34","area_km2":504782,"continent":"EU"},
"ET":{"iso2":"ET","iso3":"ETH","name":"Ethiopia","name_en":"Ethiopia","domain":"et","fips":"ET","iso_numeric":231,"latitude":8,"longitude":38,"geonameid":337996,"e164":251,"phone_code":"251","area_km2":1127127,"continent":"AF"},
"FI":{"iso2":"FI","iso3":"FIN","name":"Finland","name_en":"Finland","domain":"fi","fips":"FI","iso_numeric":246,"latitude":64,"longitude":26,"geonameid":660013,"e164":358,"phone_code":"358","area_km2":337030,"continent":"EU"},
"FJ":{"iso2":"FJ","iso3":"FJI","name":"Fiji","name_en":"Fiji","domain":"fj","fips":"FJ","iso_numeric":242,"latitude":-18,"longitude":175,"geonameid":2205218,"e164":679,"phone_code":"679","area_km2":18270,"continent":"OC"},
"FK":{"iso2":"FK","iso3":"FLK","name":"Falkland Islands (Malvinas)","name_en":"Falkland Islands","domain":"fk","fips":"FK","iso_numeric":238,"latitude":-51.75,"longitude":-59,"geonameid":3474414,"e164":500,"phone_code":"500","area_km2":12173,"continent":"SA"},
"FM":{"iso2":"FM","iso3":"FSM","name":"Micronesia, Federated States of","name_en":"Micronesia","domain":"fm","fips":"FM","iso_numeric":583,"latitude":6.9167,"longitude":158.25,"geonameid":2081918,"e164":691,"phone_code":"691","area_km2":702,"continent":"OC"},
"FO":{"iso2":"FO","iso3":"FRO","name":"Faroe Islands","name_en":"Faroe Islands","domain":"fo","fips":"FO","iso_numeric":234,"latitude":62,"longitude":-7,"geonameid":2622320,"e164":298,"phone_code":"298","area_km2":1399,"continent":"EU"},
"FR":{"iso2":"FR","iso3":"FRA","name":"France","name_en":"France","domain":"fr","fips":"FR","iso_numeric":250,"latitude":46,"longitude":2,"geonameid":3017382,"e164":33,"phone_code":"33","area_km2":547030,"continent":"EU"},
"GA":{"iso2":"GA","iso3":"GAB","name":"Gabon","name_en":"Gabon","domain":"ga","fips":"GB","iso_numeric":266,"latitude":-1,"longitude":11.75,"geonameid":2400553,"e164":241,"phone_code":"241","area_km2":267667,"continent":"AF"},
"GB":{"iso2":"GB","iso3":"GBR","name":"United Kingdom","name_en":"United Kingdom","domain":"uk","fips":"UK","iso_numeric":826,"latitude":54,"longitude":-2,"geonameid":2635167,"e164":44,"phone_code":"44","area_km2":244820,"continent":"EU"},
"GD":{"iso2":"GD","iso3":"GRD","name":"Grenada","name_en":"Grenada","domain":"gd","fips":"GJ","iso_numeric":308,"latitude":12.1167,"longitude":-61.6667,"geonameid":3580239,"e164":1,"phone_code":"1-473","area_km2":344,"continent":"NA"},
"GE":{"iso2":"GE","iso3":"GEO","name":"Georgia","name_en":"Georgia","domain":"ge","fips":"GG","iso_numeric":268,"latitude":42,"longitude":43.5,"geonameid":614540,"e164":995,"phone_code":"995","area_km2":69700,"continent":"AS"},
"GF":{"iso2":"GF","iso3":"GUF","name":"French Guiana","name_en":"French Guiana","domain":"gf","fips":"FG","iso_numeric":254,"latitude":4,"longitude":-53,"geonameid":3381670,"e164":594,"phone_code":"594","area_km2":91000,"continent":"SA"},
"GG":{"iso2":"GG","iso3":"GGY","name":"Guernsey","name_en":"Guernsey","domain":"gg","fips":"GK","iso_numeric":831,"latitude":49.5,"longitude":-2.56,"geonameid":3042362,"e164":44,"phone_code":"44-1481","area_km2":78,"continent":"EU"},
"GH":{"iso2":"GH","iso3":"GHA","name":"Ghana","name_en":"Ghana","domain":"gh","fips":"GH","iso_numeric":288,"latitude":8,"longitude":-2,"geonameid":2300660,"e164":233,"phone_code":"233","area_km2":239460,"continent":"AF"},
"GI":{"iso2":"GI","iso3":"GIB","name":"Gibraltar","name_en":"Gibraltar","domain":"gi","fips":"GI","iso_numeric":292,"latitude":36.1833,"longitude":-5.3667,"geonameid":2411586,"e164":350,"phone_code":"350","area_km2":6.5,"continent":"EU"},
"GL":{"iso2":"GL","iso3":"GRL","name":"Greenland","name_en":"Greenland","domain":"gl","fips":"GL","iso_numeric":304,"latitude":72,"longitude":-40,"geonameid":3425505,"e164":299,"phone_code":"299","area_km2":2166086,"continent":"NA"},
"GM":{"iso2":"GM","iso3":"GMB","name":"Gambia","name_en":"Gambia","domain":"gm","fips":"GA","iso_numeric":270,"latitude":13.4667,"longitude":-16.5667,"geonameid":2413451,"e164":220,"phone_code":"220","area_km2":11300,"continent":"AF"},
"GN":{"iso2":"GN","iso3":"GIN","name":"Guinea","name_en":"Guinea","domain":"gn","fips":"GV","iso_numeric":324,"latitude":11,"longitude":-10,"geonameid":2420477,"e164":224,"phone_code":"224","area_km2":245857,"continent":"AF"},
"GP":{"iso2":"GP","iso3":"GLP","name":"Guadeloupe","name_en":"Guadeloupe","domain":"gp","fips":"GP","iso_numeric":312,"latitude":16.25,"longitude":-61.5833,"geonameid":3579143,"e164":590,"phone_code":"590","area_km2":1780,"continent":"NA"},
"GQ":{"iso2":"GQ","iso3":"GNQ","name":"Equatorial Guinea","name_en":"Equatorial Guinea","domain":"gq","fips":"EK","iso_numeric":226,"latitude":2,"longitude":10,"geonameid":2309096,"e164":240,"phone_code":"240","area_km2":28051,"continent":"AF"},
"GR":{"iso2":"GR","iso3":"GRC","name":"Greece","name_en":"Greece","domain":"gr","fips":"GR","iso_numeric":300,"latitude":39,"longitude":22,"geonameid":390903,"e164":30,"phone_code":"30","area_km2":131940,"continent":"EU"},
"GS":{"iso2":"GS","iso3":"SGS","name":"South Georgia and the South Sandwich Islands","name_en":"South Georgia and South Sandwich Islands","domain":"gs","fips":"SX","iso_numeric":239,"latitude":-54.5,"longitude":-37,"geonameid":3474415,"e164":500,"phone_code":"500","area_km2":3903,"continent":"AN"},
"GT":{"iso2":"GT","iso3":"GTM","name":"Guatemala","name_en":"Guatemala","domain":"gt","fips":"GT","iso_numeric":320,"latitude":15.5,"longitude":-90.25,"geonameid":3595528,"e164":502,"phone_code":"502","area_km2":108890,"continent":"NA"},
"GU":{"iso2":"GU","iso3":"GUM","name":"Guam","name_en":"Guam","domain":"gu","fips":"GQ","iso_numeric":316,"latitude":13.4667,"longitude":144.7833,"geonameid":4043988,"e164":1,"phone_code":"1-671","area_km2":549,"continent":"OC"},
"GW":{"iso2":"GW","iso3":"GNB","name":"Guinea-Bissau","name_en":"Guinea-Bissau","domain":"gw","fips":"PU","iso_numeric":624,"latitude":12,"longitude":-15,"geonameid":2372248,"e164":245,"phone_code":"245","area_km2":36120,"continent":"AF"},
"GY":{"iso2":"GY","iso3":"GUY","name":"Guyana","name_en":"Guyana","domain":"gy","fips":"GY","iso_numeric":328,"latitude":5,"longitude":-59,"geonameid":3378535,"e164":592,"phone_code":"592","area_km2":214970,"continent":"SA"},
"HK":{"iso2":"HK","iso3":"HKG","name":"Hong Kong","name_en":"Hong Kong","domain":"hk","fips":"HK","iso_numeric":344,"latitude":22.25,"longitude":114.1667,"geonameid":1819730,"e164":852,"phone_code":"852","area_km2":1092,"continent":"AS"},
"HM":{"iso2":"HM","iso3":"HMD","name":"Heard Island and McDonald Islands","name_en":"Heard Island and McDonald Islands","domain":"hm","fips":"HM","iso_numeric":334,"latitude":-53.1,"longitude":72.5167,"geonameid":1547314,"e164":672,"phone_code":"672","area_km2":412,"continent":"AN"},
"HN":{"iso2":"HN","iso3":"HND","name":"Honduras","name_en":"Honduras","domain":"hn","fips":"HO","iso_numeric":340,"latitude":15,"longitude":-86.5,"geonameid":3608932,"e164":504,"phone_code":"504","area_km2":112090,"continent":"NA"},
"HR":{"iso2":"HR","iso3":"HRV","name":"Croatia","name_en":"Croatia","domain":"hr","fips":"HR","iso_numeric":191,"latitude":45.1667,"longitude":15.5,"geonameid":3202326,"e164":385,"phone_code":"385","area_km2":56542,"continent":"EU"},
"HT":{"iso2":"HT","iso3":"HTI","name":"Haiti","name_en":"Haiti","domain":"ht","fips":"HA","iso_numeric":332,"latitude":19,"longitude":-72.4167,"geonameid":3723988,"e164":509,"phone_code":"509","area_km2":27750,"continent":"NA"},
"HU":{"iso2":"HU","iso3":"HUN","name":"Hungary","name_en":"Hungary","domain":"hu","fips":"HU","iso_numeric":348,"latitude":47,"longitude":20,"geonameid":719819,"e164":36,"phone_code":"36","area_km2":93030,"continent":"EU"},
"ID":{"iso2":"ID","iso3":"IDN","name":"Indonesia","name_en":"Indonesia","domain":"id","fips":"ID","iso_numeric":360,"latitude":-5,"longitude":120,"geonameid":1643084,"e164":62,"phone_code":"62","area_km2":1919440,"continent":"AS"},
"IE":{"iso2":"IE","iso3":"IRL","name":"Ireland","name_en":"Ireland","domain":"ie","fips":"EI","iso_numeric":372,"latitude":53,"longitude":-8,"geonameid":2963597,"e164":353,"phone_code":"353","area_km2":70280,"continent":"EU"},
"IL":{"iso2":"IL","iso3":"ISR","name":"Israel","name_en":"Israel","domain":"il","fips":"IS","iso_numeric":376,"latitude":31.5,"longitude":34.75,"geonameid":294640,"e164":972,"phone_code":"972","area_km2":20770,"continent":"AS"},
"IM":{"iso2":"IM","iso3":"IMN","name":"Isle of Man","name_en":"Isle of Man","domain":"im","fips":"IM","iso_numeric":833,"latitude":54.23,"longitude":-4.55,"geonameid":3042225,"e164":44,"phone_code":"44-1624","area_km2":572,"continent":"EU"},
"IN":{"iso2":"IN","iso3":"IND","name":"India","name_en":"India","domain":"in","fips":"IN","iso_numeric":356,"latitude":20,"longitude":77,"geonameid":1269750,"e164":91,"phone_code":"91","area_km2":3287590,"continent":"AS"},
"IO":{"iso2":"IO","iso3":"IOT","name":"British Indian Ocean Territory","name_en":"British Indian Ocean Territory","domain":"io","fips":"IO","iso_numeric":86,"latitude":-6,"longitude":71.5,"geonameid":1282588,"e164":246,"phone_code":"246","area_km2":60,"continent":"AS"},
"IQ":{"iso2":"IQ","iso3":"IRQ","name":"Iraq","name_en":"Iraq","domain":"iq","fips":"IZ","iso_numeric":368,"latitude":33,"longitude":44,"geonameid":99237,"e164":964,"phone_code":"964","area_km2":437072,"continent":"AS"},
"IR":{"iso2":"IR","iso3":"IRN","name":"Iran, Islamic Republic of","name_en":"Iran","domain":"ir","fips":"IR","iso_numeric":364,"latitude":32,"longitude":53,"geonameid":130758,"e164":98,"phone_code":"98","area_km2":1648000,"continent":"AS"},
"IS":{"iso2":"IS","iso3":"ISL","name":"Iceland","name_en":"Iceland","domain":"is","fips":"IC","iso_numeric":352,"latitude":65,"longitude":-18,"geonameid":2629691,"e164":354,"phone_code":"354","area_km2":103000,"continent":"EU"},
"IT":{"iso2":"IT","iso3":"ITA","name":"Italy","name_en":"Italy","domain":"it","fips":"IT","iso_numeric":380,"latitude":42.8333,"longitude":12.8333,"geonameid":3175395,"e164":39,"phone_code":"39","area_km2":301230,"continent":"EU"},
"JE":{"iso2":"JE","iso3":"JEY","name":"Jersey","name_en":"Jersey","domain":"je","fips":"JE","iso_numeric":832,"latitude":49.21,"longitude":-2.13,"geonameid":3042142,"e164":44,"phone_code":"44-1534","area_km2":116,"continent":"EU"},
"JM":{"iso2":"JM","iso3":"JAM","name":"Jamaica","name_en":"Jamaica","domain":"jm","fips":"JM","iso_numeric":388,"latitude":18.25,"longitude":-77.5,"geonameid":3489940,"e164":1,"phone_code":"1-876","area_km2":10991,"continent":"NA"},
"JO":{"iso2":"JO","iso3":"JOR","name":"Jordan","name_en":"Jordan","domain":"jo","fips":"JO","iso_numeric":400,"latitude":31,"longitude":36,"geonameid":248816,"e164":962,"phone_code":"962","area_km2":92300,"continent":"AS"},
"JP":{"iso2":"JP","iso3":"JPN","name":"Japan","name_en":"Japan","domain":"jp","fips":"JA","iso_numeric":392,"latitude":36,"longitude":138,"geonameid":1861060,"e164":81,"phone_code":"81","area_km2":377835,"continent":"AS"},
"KE":{"iso2":"KE","iso3":"KEN","name":"Kenya","name_en":"Kenya","domain":"ke","fips":"KE","iso_numeric":404,"latitude":1,"longitude":38,"geonameid":192950,"e164":254,"phone_code":"254","area_km2":582650,"continent":"AF"},
"KG":{"iso2":"KG","iso3":"KGZ","name":"Kyrgyzstan","name_en":"Kyrgyzstan","domain":"kg","fips":"KG","iso_numeric":417,"latitude":41,"longitude":75,"geonameid":1527747,"e164":996,"phone_code":"996","area_km2":198500,"continent":"AS"},
"KH":{"iso2":"KH","iso3":"KHM","name":"Cambodia","name_en":"Cambodia","domain":"kh","fips":"CB","iso_numeric":116,"latitude":13,"longitude":105,"geonameid":1831722,"e164":855,"phone_code":"855","area_km2":181040,"continent":"AS"},
"KI":{"iso2":"KI","iso3":"KIR","name":"Kiribati","name_en":"Kiribati","domain":"ki","fips":"KR","iso_numeric":296,"latitude":1.4167,"longitude":173,"geonameid":4030945,"e164":686,"phone_code":"686","area_km2":811,"continent":"OC"},
"KM":{"iso2":"KM","iso3":"COM","name":"Comoros","name_en":"Comoros","domain":"km","fips":"CN","iso_numeric":174,"latitude":-12.1667,"longitude":44.25,"geonameid":921929,"e164":269,"phone_code":"269","area_km2":2170,"continent":"AF"},
"KN":{"iso2":"KN","iso3":"KNA","name":"Saint Kitts and Nevis","name_en":"Saint Kitts and Nevis","domain":"kn","fips":"SC","iso_numeric":659,"latitude":17.3333,"longitude":-62.75,"geonameid":3575174,"e164":1,"phone_code":"1-869","area_km2":261,"continent":"NA"},
"KP":{"iso2":"KP","iso3":"PRK","name":"Korea, Democratic People's Republic of","name_en":"North Korea","domain":"kp","fips":"KN","iso_numeric":408,"latitude":40,"longitude":127,"geonameid":1873107,"e164":850,"phone_code":"850","area_km2":120540,"continent":"AS"},
"KR":{"iso2":"KR","iso3":"KOR","name":"Korea, Republic of","name_en":"South Korea","domain":"kr","fips":"KS","iso_numeric":410,"latitude":37,"longitude":127.5,"geonameid":1835841,"e164":82,"phone_code":"82","area_km2":98480,"continent":"AS"},
"KW":{"iso2":"KW","iso3":"KWT","name":"Kuwait","name_en":"Kuwait","domain":"kw","fips":"KU","iso_numeric":414,"latitude":29.3375,"longitude":47.6581,"geonameid":285570,"e164":965,"phone_code":"965","area_km2":17820,"continent":"AS"},
"KY":{"iso2":"KY","iso3":"CYM","name":"Cayman Islands","name_en":"Cayman Islands","domain":"ky","fips":"CJ","iso_numeric":136,"latitude":19.5,"longitude":-80.5,"geonameid":3580718,"e164":1,"phone_code":"1-345","area_km2":262,"continent":"NA"},
"KZ":{"iso2":"KZ","iso3":"KAZ","name":"Kazakhstan","name_en":"Kazakhstan","domain":"kz","fips":"KZ","iso_numeric":398,"latitude":48,"longitude":68,"geonameid":1522867,"e164":7,"phone_code":"7","area_km2":2717300,"continent":"AS"},
"LA":{"iso2":"LA","iso3":"LAO","name":"Lao People's Democratic Republic","name_en":"Laos","domain":"la","fips":"LA","iso_numeric":418,"latitude":18,"longitude":105,"geonameid":1655842,"e164":856,"phone_code":"856","area_km2":236800,"continent":"AS"},
"LB":{"iso2":"LB","iso3":"LBN","name":"Lebanon","name_en":"Lebanon","domain":"lb","fips":"LE","iso_numeric":422,"latitude":33.8333,"longitude":35.8333,"geonameid":272103,"e164":961,"phone_code":"961","area_km2":10400,"continent":"AS"},
"LC":{"iso2":"LC","iso3":"LCA","name":"Saint Lucia","name_en":"Saint Lucia","domain":"lc","fips":"ST","iso_numeric":662,"latitude":13.8833,"longitude":-61.1333,"geonameid":3576468,"e164":1,"phone_code":"1-758","area_km2":616,"continent":"NA"},
"LI":{"iso2":"LI","iso3":"LIE","name":"Liechtenstein","name_en":"Liechtenstein","domain":"li","fips":"LS","iso_numeric":438,"latitude":47.1667,"longitude":9.5333,"geonameid":3042058,"e164":423,"phone_code":"423","area_km2":160,"continent":"EU"},
"LK":{"iso2":"LK","iso3":"LKA","name":"Sri Lanka","name_en":"Sri Lanka","domain":"lk","fips":"CE","iso_numeric":144,"latitude":7,"longitude":81,"geonameid":1227603,"e164":94,"phone_code":"94","area_km2":65610,"continent":"AS"},
"LR":{"iso2":"LR","iso3":"LBR","name":"Liberia","name_en":"Liberia","domain":"lr","fips":"LI","iso_numeric":430,"latitude":6.5,"longitude":-9.5,"geonameid":2275384,"e164":231,"phone_code":"231","area_km2":111370,"continent":"AF"},
"LS":{"iso2":"LS","iso3":"LSO","name":"Lesotho","name_en":"Lesotho","domain":"ls","fips":"LT","iso_numeric":426,"latitude":-29.5,"longitude":28.5,"geonameid":932692,"e164":266,"phone_code":"266","area_km2":30355,"continent":"AF"},
"LT":{"iso2":"LT","iso3":"LTU","name":"Lithuania","name_en":"Lithuania","domain":"lt","fips":"LH","iso_numeric":440,"latitude":56,"longitude":24,"geonameid":597427,"e164":370,"phone_code":"370","area_km2":65200,"continent":"EU"},
"LU":{"iso2":"LU","iso3":"LUX","name":"Luxembourg","name_en":"Luxembourg","domain":"lu","fips":"LU","iso_numeric":442,"latitude":49.75,"longitude":6.1667,"geonameid":2960313,"e164":352,"phone_code":"352","area_km2":2586,"continent":"EU"},
"LV":{"iso2":"LV","iso3":"LVA","name":"Latvia","name_en":"Latvia","domain":"lv","fips":"LG","iso_numeric":428,"latitude":57,"longitude":25,"geonameid":458258,"e164":371,"phone_code":"371","area_km2":64589,"continent":"EU"},
"LY":{"iso2":"LY","iso3":"LBY","name":"Libyan Arab Jamahiriya","name_en":"Libya","domain":"ly","fips":"LY","iso_numeric":434,"latitude":25,"longitude":17,"geonameid":2215636,"e164":218,"phone_code":"218","area_km2":1759540,"continent":"AF"},
"MA":{"iso2":"MA","iso3":"MAR","name":"Morocco","name_en":"Morocco","domain":"ma","fips":"MO","iso_numeric":504,"latitude":32,"longitude":-5,"geonameid":2542007,"e164":212,"phone_code":"212","area_km2":446550,"continent":"AF"},
"MC":{"iso2":"MC","iso3":"MCO","name":"Monaco","name_en":"Monaco","domain":"mc","fips":"MN","iso_numeric":492,"latitude":43.7333,"longitude":7.4,"geonameid":2993457,"e164":377,"phone_code":"377","area_km2":1.9,"continent":"EU"},
"MD":{"iso2":"MD","iso3":"MDA","name":"Moldova, Republic of","name_en":"Moldova","domain":"md","fips":"MD","iso_numeric":498,"latitude":47,"longitude":29,"geonameid":617790,"e164":373,"phone_code":"373","area_km2":33843,"continent":"EU"},
"ME":{"iso2":"ME","iso3":"MNE","name":"Montenegro","name_en":"Montenegro","domain":"me","fips":"MJ","iso_numeric":499,"latitude":42,"longitude":19,"geonameid":3194884,"e164":382,"phone_code":"382","area_km2":14026,"continent":"EU"},
"MF":{"iso2":"MF","iso3":"MAF","name":"Saint Martin","name_en":"Saint Martin","domain":"gp","fips":"RN","iso_numeric":663,"latitude":0,"longitude":0,"geonameid":3578421,"e164":590,"phone_code":"590","area_km2":53,"continent":"NA"},
"MG":{"iso2":"MG","iso3":"MDG","name":"Madagascar","name_en":"Madagascar","domain":"mg","fips":"MA","iso_numeric":450,"latitude":-20,"longitude":47,"geonameid":1062947,"e164":261,"phone_code":"261","area_km2":587040,"continent":"AF"},
"MH":{"iso2":"MH","iso3":"MHL","name":"Marshall Islands","name_en":"Marshall Islands","domain":"mh","fips":"RM","iso_numeric":584,"latitude":9,"longitude":168,"geonameid":2080185,"e164":692,"phone_code":"692","area_km2":181.3,"continent":"OC"},
"MK":{"iso2":"MK","iso3":"MKD","name":"Macedonia, The Former Yugoslav Republic of","name_en":"Macedonia","domain":"mk","fips":"MK","iso_numeric":807,"latitude":41.8333,"longitude":22,"geonameid":718075,"e164":389,"phone_code":"389","area_km2":25333,"continent":"EU"},
"ML":{"iso2":"ML","iso3":"MLI","name":"Mali","name_en":"Mali","domain":"ml","fips":"ML","iso_numeric":466,"latitude":17,"longitude":-4,"geonameid":2453866,"e164":223,"phone_code":"223","area_km2":1240000,"continent":"AF"},
"MM":{"iso2":"MM","iso3":"MMR","name":"Myanmar","name_en":"Myanmar","domain":"mm","fips":"BM","iso_numeric":104,"latitude":22,"longitude":98,"geonameid":1327865,"e164":95,"phone_code":"95","area_km2":678500,"continent":"AS"},
"MN":{"iso2":"MN","iso3":"MNG","name":"Mongolia","name_en":"Mongolia","domain":"mn","fips":"MG","iso_numeric":496,"latitude":46,"longitude":105,"geonameid":2029969,"e164":976,"phone_code":"976","area_km2":1565000,"continent":"AS"},
"MO":{"iso2":"MO","iso3":"MAC","name":"Macao","name_en":"Macau","domain":"mo","fips":"MC","iso_numeric":446,"latitude":22.1667,"longitude":113.55,"geonameid":1821275,"e164":853,"phone_code":"853","area_km2":254,"continent":"AS"},
"MP":{"iso2":"MP","iso3":"MNP","name":"Northern Mariana Islands","name_en":"Northern Mariana Islands","domain":"mp","fips":"CQ","iso_numeric":580,"latitude":15.2,"longitude":145.75,"geonameid":4041468,"e164":1,"phone_code":"1-670","area_km2":477,"continent":"OC"},
"MQ":{"iso2":"MQ","iso3":"MTQ","name":"Martinique","name_en":"Martinique","domain":"mq","fips":"MB","iso_numeric":474,"latitude":14.6667,"longitude":-61,"geonameid":3570311,"e164":596,"phone_code":"596","area_km2":1100,"continent":"NA"},
"MR":{"iso2":"MR","iso3":"MRT","name":"Mauritania","name_en":"Mauritania","domain":"mr","fips":"MR","iso_numeric":478,"latitude":20,"longitude":-12,"geonameid":2378080,"e164":222,"phone_code":"222","area_km2":1030700,"continent":"AF"},
"MS":{"iso2":"MS","iso3":"MSR","name":"Montserrat","name_en":"Montserrat","domain":"ms","fips":"MH","iso_numeric":500,"latitude":16.75,"longitude":-62.2,"geonameid":3578097,"e164":1,"phone_code":"1-664","area_km2":102,"continent":"NA"},
"MT":{"iso2":"MT","iso3":"MLT","name":"Malta","name_en":"Malta","domain":"mt","fips":"MT","iso_numeric":470,"latitude":35.8333,"longitude":14.5833,"geonameid":2562770,"e164":356,"phone_code":"356","area_km2":316,"continent":"EU"},
"MU":{"iso2":"MU","iso3":"MUS","name":"Mauritius","name_en":"Mauritius","domain":"mu","fips":"MP","iso_numeric":480,"latitude":-20.2833,"longitude":57.55,"geonameid":934292,"e164":230,"phone_code":"230","area_km2":2040,"continent":"AF"},
"MV":{"iso2":"MV","iso3":"MDV","name":"Maldives","name_en":"Maldives","domain":"mv","fips":"MV","iso_numeric":462,"latitude":3.25,"longitude":73,"geonameid":1282028,"e164":960,"phone_code":"960","area_km2":300,"continent":"AS"},
"MW":{"iso2":"MW","iso3":"MWI","name":"Malawi","name_en":"Malawi","domain":"mw","fips":"MI","iso_numeric":454,"latitude":-13.5,"longitude":34,"geonameid":927384,"e164":265,"phone_code":"265","area_km2":118480,"continent":"AF"},
"MX":{"iso2":"MX","iso3":"MEX","name":"Mexico","name_en":"Mexico","domain":"mx","fips":"MX","iso_numeric":484,"latitude":23,"longitude":-102,"geonameid":3996063,"e164":52,"phone_code":"52","area_km2":1972550,"continent":"NA"},
"MY":{"iso2":"MY","iso3":"MYS","name":"Malaysia","name_en":"Malaysia","domain":"my","fips":"MY","iso_numeric":458,"latitude":2.5,"longitude":112.5,"geonameid":1733045,"e164":60,"phone_code":"60","area_km2":329750,"continent":"AS"},
"MZ":{"iso2":"MZ","iso3":"MOZ","name":"Mozambique","name_en":"Mozambique","domain":"mz","fips":"MZ","iso_numeric":508,"latitude":-18.25,"longitude":35,"geonameid":1036973,"e164":258,"phone_code":"258","area_km2":801590,"continent":"AF"},
"NA":{"iso2":"NA","iso3":"NAM","name":"Namibia","name_en":"Namibia","domain":"na","fips":"WA","iso_numeric":516,"latitude":-22,"longitude":17,"geonameid":3355338,"e164":264,"phone_code":"264","area_km2":825418,"continent":"AF"},
"NC":{"iso2":"NC","iso3":"NCL","name":"New Caledonia","name_en":"New Caledonia","domain":"nc","fips":"NC","iso_numeric":540,"latitude":-21.5,"longitude":165.5,"geonameid":2139685,"e164":687,"phone_code":"687","area_km2":19060,"continent":"OC"},
"NE":{"iso2":"NE","iso3":"NER","name":"Niger","name_en":"Niger","domain":"ne","fips":"NG","iso_numeric":562,"latitude":16,"longitude":8,"geonameid":2440476,"e164":227,"phone_code":"227","area_km2":1267000,"continent":"AF"},
"NF":{"iso2":"NF","iso3":"NFK","name":"Norfolk Island","name_en":"Norfolk Island","domain":"nf","fips":"NF","iso_numeric":574,"latitude":-29.0333,"longitude":167.95,"geonameid":2155115,"e164":672,"phone_code":"672","area_km2":34.6,"continent":"OC"},
"NG":{"iso2":"NG","iso3":"NGA","name":"Nigeria","name_en":"Nigeria","domain":"ng","fips":"NI","iso_numeric":566,"latitude":10,"longitude":8,"geonameid":2328926,"e164":234,"phone_code":"234","area_km2":923768,"continent":"AF"},
"NI":{"iso2":"NI","iso3":"NIC","name":"Nicaragua","name_en":"Nicaragua","domain":"ni","fips":"NU","iso_numeric":558,"latitude":13,"longitude":-85,"geonameid":3617476,"e164":505,"phone_code":"505","area_km2":129494,"continent":"NA"},
"NL":{"iso2":"NL","iso3":"NLD","name":"Netherlands","name_en":"Netherlands","domain":"nl","fips":"NL","iso_numeric":528,"latitude":52.5,"longitude":5.75,"geonameid":2750405,"e164":31,"phone_code":"31","area_km2":41526,"continent":"EU"},
"NO":{"iso2":"NO","iso3":"NOR","name":"Norway","name_en":"Norway","domain":"no","fips":"NO","iso_numeric":578,"latitude":62,"longitude":10,"geonameid":3144096,"e164":47,"phone_code":"47","area_km2":324220,"continent":"EU"},
"NP":{"iso2":"NP","iso3":"NPL","name":"Nepal","name_en":"Nepal","domain":"np","fips":"NP","iso_numeric":524,"latitude":28,"longitude":84,"geonameid":1282988,"e164":977,"phone_code":"977","area_km2":140800,"continent":"AS"},
"NR":{"iso2":"NR","iso3":"NRU","name":"Nauru","name_en":"Nauru","domain":"nr","fips":"NR","iso_numeric":520,"latitude":-0.5333,"longitude":166.9167,"geonameid":2110425,"e164":674,"phone_code":"674","area_km2":21,"continent":"OC"},
"NU":{"iso2":"NU","iso3":"NIU","name":"Niue","name_en":"Niue","domain":"nu","fips":"NE","iso_numeric":570,"latitude":-19.0333,"longitude":-169.8667,"geonameid":4036232,"e164":683,"phone_code":"683","area_km2":260,"continent":"OC"},
"NZ":{"iso2":"NZ","iso3":"NZL","name":"New Zealand","name_en":"New Zealand","domain":"nz","fips":"NZ","iso_numeric":554,"latitude":-41,"longitude":174,"geonameid":2186224,"e164":64,"phone_code":"64","area_km2":268680,"continent":"OC"},
"OM":{"iso2":"OM","iso3":"OMN","name":"Oman","name_en":"Oman","domain":"om","fips":"MU","iso_numeric":512,"latitude":21,"longitude":57,"geonameid":286963,"e164":968,"phone_code":"968","area_km2":212460,"continent":"AS"},
"PA":{"iso2":"PA","iso3":"PAN","name":"Panama","name_en":"Panama","domain":"pa","fips":"PM","iso_numeric":591,"latitude":9,"longitude":-80,"geonameid":3703430,"e164":507,"phone_code":"507","area_km2":78200,"continent":"NA"},
"PE":{"iso2":"PE","iso3":"PER","name":"Peru","name_en":"Peru","domain":"pe","fips":"PE","iso_numeric":604,"latitude":-10,"longitude":-76,"geonameid":3932488,"e164":51,"phone_code":"51","area_km2":1285220,"continent":"SA"},
"PF":{"iso2":"PF","iso3":"PYF","name":"French Polynesia","name_en":"French Polynesia","domain":"pf","fips":"FP","iso_numeric":258,"latitude":-15,"longitude":-140,"geonameid":4030656,"e164":689,"phone_code":"689","area_km2":4167,"continent":"OC"},
"PG":{"iso2":"PG","iso3":"PNG","name":"Papua New Guinea","name_en":"Papua New Guinea","domain":"pg","fips":"PP","iso_numeric":598,"latitude":-6,"longitude":147,"geonameid":2088628,"e164":675,"phone_code":"675","area_km2":462840,"continent":"OC"},
"PH":{"iso2":"PH","iso3":"PHL","name":"Philippines","name_en":"Philippines","domain":"ph","fips":"RP","iso_numeric":608,"latitude":13,"longitude":122,"geonameid":1694008,"e164":63,"phone_code":"63","area_km2":300000,"continent":"AS"},
"PK":{"iso2":"PK","iso3":"PAK","name":"Pakistan","name_en":"Pakistan","domain":"pk","fips":"PK","iso_numeric":586,"latitude":30,"longitude":70,"geonameid":1168579,"e164":92,"phone_code":"92","area_km2":803940,"continent":"AS"},
"PL":{"iso2":"PL","iso3":"POL","name":"Poland","name_en":"Poland","domain":"pl","fips":"PL","iso_numeric":616,"latitude":52,"longitude":20,"geonameid":798544,"e164":48,"phone_code":"48","area_km2":312685,"continent":"EU"},
"PM":{"iso2":"PM","iso3":"SPM","name":"Saint Pierre and Miquelon","name_en":"Saint Pierre and Miquelon","domain":"pm","fips":"SB","iso_numeric":666,"latitude":46.8333,"longitude":-56.3333,"geonameid":3424932,"e164":508,"phone_code":"508","area_km2":242,"continent":"NA"},
"PN":{"iso2":"PN","iso3":"PCN","name":"Pitcairn Islands","name_en":"Pitcairn","domain":"pn","fips":"PC","iso_numeric":612,"latitude":-24.7,"longitude":-127.4,"geonameid":4030699,"e164":64,"phone_code":"64","area_km2":47,"continent":"OC"},
"PR":{"iso2":"PR","iso3":"PRI","name":"Puerto Rico","name_en":"Puerto Rico","domain":"pr","fips":"RQ","iso_numeric":630,"latitude":18.25,"longitude":-66.5,"geonameid":4566966,"e164":1,"phone_code":"1-787, 1-939","area_km2":9104,"continent":"NA"},
"PS":{"iso2":"PS","iso3":"PSE","name":"Palestinian Territory, Occupied","name_en":"Palestine","domain":"ps","fips":"WE","iso_numeric":275,"latitude":32,"longitude":35.25,"geonameid":6254930,"e164":970,"phone_code":"970","area_km2":5970,"continent":"AS"},
"PT":{"iso2":"PT","iso3":"PRT","name":"Portugal","name_en":"Portugal","domain":"pt","fips":"PO","iso_numeric":620,"latitude":39.5,"longitude":-8,"geonameid":2264397,"e164":351,"phone_code":"351","area_km2":92391,"continent":"EU"},
"PW":{"iso2":"PW","iso3":"PLW","name":"Palau","name_en":"Palau","domain":"pw","fips":"PS","iso_numeric":585,"latitude":7.5,"longitude":134.5,"geonameid":1559582,"e164":680,"phone_code":"680","area_km2":458,"continent":"OC"},
"PY":{"iso2":"PY","iso3":"PRY","name":"Paraguay","name_en":"Paraguay","domain":"py","fips":"PA","iso_numeric":600,"latitude":-23,"longitude":-58,"geonameid":3437598,"e164":595,"phone_code":"595","area_km2":406750,"continent":"SA"},
"QA":{"iso2":"QA","iso3":"QAT","name":"Qatar","name_en":"Qatar","domain":"qa","fips":"QA","iso_numeric":634,"latitude":25.5,"longitude":51.25,"geonameid":289688,"e164":974,"phone_code":"974","area_km2":11437,"continent":"AS"},
"RE":{"iso2":"RE","iso3":"REU","name":"Réunion","name_en":"Reunion","domain":"re","fips":"RE","iso_numeric":638,"latitude":-21.1,"longitude":55.6,"geonameid":935317,"e164":262,"phone_code":"262","area_km2":2517,"continent":"AF"},
"RO":{"iso2":"RO","iso3":"ROU","name":"Romania","name_en":"Romania","domain":"ro","fips":"RO","iso_numeric":642,"latitude":46,"longitude":25,"geonameid":798549,"e164":40,"phone_code":"40","area_km2":237500,"continent":"EU"},
"RS":{"iso2":"RS","iso3":"SRB","name":"Serbia","name_en":"Serbia","domain":"rs","fips":"RI","iso_numeric":688,"latitude":44,"longitude":21,"geonameid":6290252,"e164":381,"phone_code":"381","area_km2":88361,"continent":"EU"},
"RU":{"iso2":"RU","iso3":"RUS","name":"Russia","name_en":"Russia","domain":"ru","fips":"RS","iso_numeric":643,"latitude":60,"longitude":100,"geonameid":2017370,"e164":7,"phone_code":"7","area_km2":17100000,"continent":"EU"},
"RW":{"iso2":"RW","iso3":"RWA","name":"Rwanda","name_en":"Rwanda","domain":"rw","fips":"RW","iso_numeric":646,"latitude":-2,"longitude":30,"geonameid":49518,"e164":250,"phone_code":"250","area_km2":26338,"continent":"AF"},
"SA":{"iso2":"SA","iso3":"SAU","name":"Saudi Arabia","name_en":"Saudi Arabia","domain":"sa","fips":"SA","iso_numeric":682,"latitude":25,"longitude":45,"geonameid":102358,"e164":966,"phone_code":"966","area_km2":1960582,"continent":"AS"},
"SB":{"iso2":"SB","iso3":"SLB","name":"Solomon Islands","name_en":"Solomon Islands","domain":"sb","fips":"BP","iso_numeric":90,"latitude":-8,"longitude":159,"geonameid":2103350,"e164":677,"phone_code":"677","area_km2":28450,"continent":"OC"},
"SC":{"iso2":"SC","iso3":"SYC","name":"Seychelles","name_en":"Seychelles","domain":"sc","fips":"SE","iso_numeric":690,"latitude":-4.5833,"longitude":55.6667,"geonameid":241170,"e164":248,"phone_code":"248","area_km2":455,"continent":"AF"},
"SD":{"iso2":"SD","iso3":"SDN","name":"Sudan","name_en":"Sudan","domain":"sd","fips":"SU","iso_numeric":729,"latitude":15,"longitude":30,"geonameid":366755,"e164":249,"phone_code":"249","area_km2":1861484,"continent":"AF"},
"SE":{"iso2":"SE","iso3":"SWE","name":"Sweden","name_en":"Sweden","domain":"se","fips":"SW","iso_numeric":752,"latitude":62,"longitude":15,"geonameid":2661886,"e164":46,"phone_code":"46","area_km2":449964,"continent":"EU"},
"SG":{"iso2":"SG","iso3":"SGP","name":"Singapore","name_en":"Singapore","domain":"sg","fips":"SN","iso_numeric":702,"latitude":1.3667,"longitude":103.8,"geonameid":1880251,"e164":65,"phone_code":"65","area_km2":693,"continent":"AS"},
"SH":{"iso2":"SH","iso3":"SHN","name":"Saint Helena, Ascension and Tristan Da Cunha","name_en":"Saint Helena","domain":"sh","fips":"SH","iso_numeric":654,"latitude":-15.9333,"longitude":-5.7,"geonameid":3370751,"e164":290,"phone_code":"290","area_km2":410,"continent":"AF"},
"SI":{"iso2":"SI","iso3":"SVN","name":"Slovenia","name_en":"Slovenia","domain":"si","fips":"SI","iso_numeric":705,"latitude":46,"longitude":15,"geonameid":3190538,"e164":386,"phone_code":"386","area_km2":20273,"continent":"EU"},
"SJ":{"iso2":"SJ","iso3":"SJM","name":"Svalbard and Jan Mayen","name_en":"Svalbard and Jan Mayen","domain":"sj","fips":"SV","iso_numeric":744,"latitude":78,"longitude":20,"geonameid":607072,"e164":47,"phone_code":"47","area_km2":62049,"continent":"EU"},
"SK":{"iso2":"SK","iso3":"SVK","name":"Slovakia","name_en":"Slovakia","domain":"sk","fips":"LO","iso_numeric":703,"latitude":48.6667,"longitude":19.5,"geonameid":3057568,"e164":421,"phone_code":"421","area_km2":48845,"continent":"EU"},
"SL":{"iso2":"SL","iso3":"SLE","name":"Sierra Leone","name_en":"Sierra Leone","domain":"sl","fips":"SL","iso_numeric":694,"latitude":8.5,"longitude":-11.5,"geonameid":2403846,"e164":232,"phone_code":"232","area_km2":71740,"continent":"AF"},
"SM":{"iso2":"SM","iso3":"SMR","name":"San Marino","name_en":"San Marino","domain":"sm","fips":"SM","iso_numeric":674,"latitude":43.7667,"longitude":12.4167,"geonameid":3168068,"e164":378,"phone_code":"378","area_km2":61,"continent":"EU"},
"SN":{"iso2":"SN","iso3":"SEN","name":"Senegal","name_en":"Senegal","domain":"sn","fips":"SG","iso_numeric":686,"latitude":14,"longitude":-14,"geonameid":2245662,"e164":221,"phone_code":"221","area_km2":196190,"continent":"AF"},
"SO":{"iso2":"SO","iso3":"SOM","name":"Somalia","name_en":"Somalia","domain":"so","fips":"SO","iso_numeric":706,"latitude":10,"longitude":49,"geonameid":51537,"e164":252,"phone_code":"252","area_km2":637657,"continent":"AF"},
"SR":{"iso2":"SR","iso3":"SUR","name":"Suriname","name_en":"Suriname","domain":"sr","fips":"NS","iso_numeric":740,"latitude":4,"longitude":-56,"geonameid":3382998,"e164":597,"phone_code":"597","area_km2":163270,"continent":"SA"},
"SS":{"iso2":"SS","iso3":"SSD","name":"South Sudan","name_en":"South Sudan","domain":"ss","fips":"OD","iso_numeric":728,"latitude":4.8594,"longitude":31.5713,"geonameid":7909807,"e164":211,"phone_code":"211","area_km2":644329,"continent":"AF"},
"ST":{"iso2":"ST","iso3":"STP","name":"São Tomé and Príncipe","name_en":"Sao Tome and Principe","domain":"st","fips":"TP","iso_numeric":678,"latitude":0.2554,"longitude":6.6028,"geonameid":2410758,"e164":239,"phone_code":"239","area_km2":1001,"continent":"AF"},
"SV":{"iso2":"SV","iso3":"SLV","name":"El Salvador","name_en":"El Salvador","domain":"sv","fips":"ES","iso_numeric":222,"latitude":13.7942,"longitude":-88.8965,"geonameid":3585968,"e164":503,"phone_code":"503","area_km2":21040,"continent":"NA"},
"SX":{"iso2":"SX","iso3":"SXM","name":"Sint Maarten","name_en":"Sint Maarten","domain":"sx","fips":"NN","iso_numeric":534,"latitude":18.0347,"longitude":-63.0755,"geonameid":7609695,"e164":1,"phone_code":"1-721","area_km2":34,"continent":"NA"},
"SY":{"iso2":"SY","iso3":"SYR","name":"Syrian Arab Republic","name_en":"Syria","domain":"sy","fips":"SY","iso_numeric":760,"latitude":35,"longitude":38,"geonameid":163843,"e164":963,"phone_code":"963","area_km2":185180,"continent":"AS"},
"SZ":{"iso2":"SZ","iso3":"SWZ","name":"Swaziland","name_en":"Swaziland","domain":"sz","fips":"WZ","iso_numeric":748,"latitude":-26.5,"longitude":31.5,"geonameid":934841,"e164":268,"phone_code":"268","area_km2":17363,"continent":"AF"},
"TC":{"iso2":"TC","iso3":"TCA","name":"Turks and Caicos Islands","name_en":"Turks and Caicos Islands","domain":"tc","fips":"TK","iso_numeric":796,"latitude":21.75,"longitude":-71.5833,"geonameid":3576916,"e164":1,"phone_code":"1-649","area_km2":430,"continent":"NA"},
"TD":{"iso2":"TD","iso3":"TCD","name":"Chad","name_en":"Chad","domain":"td","fips":"CD","iso_numeric":148,"latitude":15,"longitude":19,"geonameid":2434508,"e164":235,"phone_code":"235","area_km2":1284000,"continent":"AF"},
"TF":{"iso2":"TF","iso3":"ATF","name":"French Southern and Antarctic Lands","name_en":"French Southern Territories","domain":"tf","fips":"FS","iso_numeric":260,"latitude":-43,"longitude":67,"geonameid":1546748,"e164":262,"phone_code":"262","area_km2":7829,"continent":"AN"},
"TG":{"iso2":"TG","iso3":"TGO","name":"Togo","name_en":"Togo","domain":"tg","fips":"TO","iso_numeric":768,"latitude":8,"longitude":1.1667,"geonameid":2363686,"e164":228,"phone_code":"228","area_km2":56785,"continent":"AF"},
"TH":{"iso2":"TH","iso3":"THA","name":"Thailand","name_en":"Thailand","domain":"th","fips":"TH","iso_numeric":764,"latitude":15,"longitude":100,"geonameid":1605651,"e164":66,"phone_code":"66","area_km2":514000,"continent":"AS"},
"TJ":{"iso2":"TJ","iso3":"TJK","name":"Tajikistan","name_en":"Tajikistan","domain":"tj","fips":"TI","iso_numeric":762,"latitude":39,"longitude":71,"geonameid":1220409,"e164":992,"phone_code":"992","area_km2":143100,"continent":"AS"},
"TK":{"iso2":"TK","iso3":"TKL","name":"Tokelau","name_en":"Tokelau","domain":"tk","fips":"TL","iso_numeric":772,"latitude":-9,"longitude":-172,"geonameid":4031074,"e164":690,"phone_code":"690","area_km2":10,"continent":"OC"},
"TL":{"iso2":"TL","iso3":"TLS","name":"Timor-Leste","name_en":"East Timor","domain":"tl","fips":"TT","iso_numeric":626,"latitude":-8.55,"longitude":125.5167,"geonameid":1966436,"e164":670,"phone_code":"670","area_km2":15007,"continent":"OC"},
"TM":{"iso2":"TM","iso3":"TKM","name":"Turkmenistan","name_en":"Turkmenistan","domain":"tm","fips":"TX","iso_numeric":795,"latitude":40,"longitude":60,"geonameid":1218197,"e164":993,"phone_code":"993","area_km2":488100,"continent":"AS"},
"TN":{"iso2":"TN","iso3":"TUN","name":"Tunisia","name_en":"Tunisia","domain":"tn","fips":"TS","iso_numeric":788,"latitude":34,"longitude":9,"geonameid":2464461,"e164":216,"phone_code":"216","area_km2":163610,"continent":"AF"},
"TO":{"iso2":"TO","iso3":"TON","name":"Tonga","name_en":"Tonga","domain":"to","fips":"TN","iso_numeric":776,"latitude":-20,"longitude":-175,"geonameid":4032283,"e164":676,"phone_code":"676","area_km2":748,"continent":"OC"},
"TR":{"iso2":"TR","iso3":"TUR","name":"Turkey","name_en":"Turkey","domain":"tr","fips":"TU","iso_numeric":792,"latitude":39,"longitude":35,"geonameid":298795,"e164":90,"phone_code":"90","area_km2":780580,"continent":"AS"},
"TT":{"iso2":"TT","iso3":"TTO","name":"Trinidad and Tobago","name_en":"Trinidad and Tobago","domain":"tt","fips":"TD","iso_numeric":780,"latitude":11,"longitude":-61,"geonameid":3573591,"e164":1,"phone_code":"1-868","area_km2":5128,"continent":"NA"},
"TV":{"iso2":"TV","iso3":"TUV","name":"Tuvalu","name_en":"Tuvalu","domain":"tv","fips":"TV","iso_numeric":798,"latitude":-8,"longitude":178,"geonameid":2110297,"e164":688,"phone_code":"688","area_km2":26,"continent":"OC"},
"TW":{"iso2":"TW","iso3":"TWN","name":"Taiwan","name_en":"Taiwan","domain":"tw","fips":"TW","iso_numeric":158,"latitude":23.5,"longitude":121,"geonameid":1668284,"e164":886,"phone_code":"886","area_km2":35980,"continent":"AS"},
"TZ":{"iso2":"TZ","iso3":"TZA","name":"Tanzania, United Republic of","name_en":"Tanzania","domain":"tz","fips":"TZ","iso_numeric":834,"latitude":-6,"longitude":35,"geonameid":149590,"e164":255,"phone_code":"255","area_km2":945087,"continent":"AF"},
"UA":{"iso2":"UA","iso3":"UKR","name":"Ukraine","name_en":"Ukraine","domain":"ua","fips":"UP","iso_numeric":804,"latitude":49,"longitude":32,"geonameid":690791,"e164":380,"phone_code":"380","area_km2":603700,"continent":"EU"},
"UG":{"iso2":"UG","iso3":"UGA","name":"Uganda","name_en":"Uganda","domain":"ug","fips":"UG","iso_numeric":800,"latitude":1,"longitude":32,"geonameid":226074,"e164":256,"phone_code":"256","area_km2":236040,"continent":"AF"},
"UM":{"iso2":"UM","iso3":"UMI","name":"United States Minor Outlying Islands","name_en":"U.S. Minor Outlying Islands","domain":"um","fips":"","iso_numeric":581,"latitude":19.2833,"longitude":166.6,"geonameid":5854968,"e164":1581,"phone_code":"1581","area_km2":0,"continent":"OC"},
"US":{"iso2":"US","iso3":"USA","name":"United States","name_en":"United States","domain":"us","fips":"US","iso_numeric":840,"latitude":38,"longitude":-97,"geonameid":6252001,"e164":1,"phone_code":"1","area_km2":9629091,"continent":"NA"},
"UY":{"iso2":"UY","iso3":"URY","name":"Uruguay","name_en":"Uruguay","domain":"uy","fips":"UY","iso_numeric":858,"latitude":-33,"longitude":-56,"geonameid":3439705,"e164":598,"phone_code":"598","area_km2":176220,"continent":"SA"},
"UZ":{"iso2":"UZ","iso3":"UZB","name":"Uzbekistan","name_en":"Uzbekistan","domain":"uz","fips":"UZ","iso_numeric":860,"latitude":41,"longitude":64,"geonameid":1512440,"e164":998,"phone_code":"998","area_km2":447400,"continent":"AS"},
"VA":{"iso2":"VA","iso3":"VAT","name":"Holy See (Vatican City State)","name_en":"Vatican","domain":"va","fips":"VT","iso_numeric":336,"latitude":41.9,"longitude":12.45,"geonameid":3164670,"e164":39,"phone_code":"379","area_km2":0.4,"continent":"EU"},
"VC":{"iso2":"VC","iso3":"VCT","name":"Saint Vincent and the Grenadines","name_en":"Saint Vincent and the Grenadines","domain":"vc","fips":"VC","iso_numeric":670,"latitude":13.25,"longitude":-61.2,"geonameid":3577815,"e164":1,"phone_code":"1-784","area_km2":389,"continent":"NA"},
"VE":{"iso2":"VE","iso3":"VEN","name":"Venezuela, Bolivarian Republic of","name_en":"Venezuela","domain":"ve","fips":"VE","iso_numeric":862,"latitude":8,"longitude":-66,"geonameid":3625428,"e164":58,"phone_code":"58","area_km2":912050,"continent":"SA"},
"VG":{"iso2":"VG","iso3":"VGB","name":"Virgin Islands, British","name_en":"British Virgin Islands","domain":"vg","fips":"VI","iso_numeric":92,"latitude":18.5,"longitude":-64.5,"geonameid":3577718,"e164":1,"phone_code":"1-284","area_km2":153,"continent":"NA"},
"VI":{"iso2":"VI","iso3":"VIR","name":"Virgin Islands, U.S.","name_en":"U.S. Virgin Islands","domain":"vi","fips":"VQ","iso_numeric":850,"latitude":18.3333,"longitude":-64.8333,"geonameid":4796775,"e164":1,"phone_code":"1-340","area_km2":352,"continent":"NA"},
"VN":{"iso2":"VN","iso3":"VNM","name":"Viet Nam","name_en":"Vietnam","domain":"vn","fips":"VM","iso_numeric":704,"latitude":16,"longitude":106,"geonameid":1562822,"e164":84,"phone_code":"84","area_km2":329560,"continent":"AS"},
"VU":{"iso2":"VU","iso3":"VUT","name":"Vanuatu","name_en":"Vanuatu","domain":"vu","fips":"NH","iso_numeric":548,"latitude":-16,"longitude":167,"geonameid":2134431,"e164":678,"phone_code":"678","area_km2":12200,"continent":"OC"},
"WF":{"iso2":"WF","iso3":"WLF","name":"Wallis and Futuna","name_en":"Wallis and Futuna","domain":"wf","fips":"WF","iso_numeric":876,"latitude":-13.3,"longitude":-176.2,"geonameid":4034749,"e164":681,"phone_code":"681","area_km2":274,"continent":"OC"},
"WS":{"iso2":"WS","iso3":"WSM","name":"Samoa","name_en":"Samoa","domain":"ws","fips":"WS","iso_numeric":882,"latitude":-13.5833,"longitude":-172.3333,"geonameid":4034894,"e164":685,"phone_code":"685","area_km2":2944,"continent":"OC"},
"XK":{"iso2":"XK","iso3":"XKX","name":"Kosovo, Republic of Kosovo","name_en":"Kosovo","domain":"xk","fips":"KV","iso_numeric":0,"latitude":0,"longitude":0,"geonameid":831053,"e164":383,"phone_code":"383","area_km2":10887,"continent":"EU"},
"YE":{"iso2":"YE","iso3":"YEM","name":"Yemen","name_en":"Yemen","domain":"ye","fips":"YM","iso_numeric":887,"latitude":15,"longitude":48,"geonameid":69543,"e164":967,"phone_code":"967","area_km2":527970,"continent":"AS"},
"YT":{"iso2":"YT","iso3":"MYT","name":"Mayotte","name_en":"Mayotte","domain":"yt","fips":"MF","iso_numeric":175,"latitude":-12.8333,"longitude":45.1667,"geonameid":1024031,"e164":262,"phone_code":"262","area_km2":374,"continent":"AF"},
"ZA":{"iso2":"ZA","iso3":"ZAF","name":"South Africa","name_en":"South Africa","domain":"za","fips":"SF","iso_numeric":710,"latitude":-29,"longitude":24,"geonameid":953987,"e164":27,"phone_code":"27","area_km2":1219912,"continent":"AF"},
"ZM":{"iso2":"ZM","iso3":"ZMB","name":"Zambia","name_en":"Zambia","domain":"zm","fips":"ZA","iso_numeric":894,"latitude":-15,"longitude":30,"geonameid":895949,"e164":260,"phone_code":"260","area_km2":752614,"continent":"AF"},
"ZW":{"iso2":"ZW","iso3":"ZWE","name":"Zimbabwe","name_en":"Zimbabwe","domain":"zw","fips":"ZI","iso_numeric":716,"latitude":-20,"longitude":30,"geonameid":878675,"e164":263,"phone_code":"263","area_km2":390580,"continent":"AF"}
}